GLOBALSTAR M024         
1 25883U 99043A   25199.53498125 -.00000132  00000+0 -23720-2 0  9997
2 25883  52.0039 309.8933 0001954 146.0989 294.6845 11.10165735118376
GLOBALSTAR M027         
1 25884U 99043B   25198.45569540 -.00000050  00000+0  53091-3 0  9991
2 25884  52.0230  31.1656 0022067  41.6212 318.6256 11.04372505144587
GLOBALSTAR M054         
1 25885U 99043C   25199.19793858 -.00000048  00000+0  58537-3 0  9992
2 25885  52.0119 151.6071 0005355 231.8821 233.1496 11.39225013122912
GLOBALSTAR M053         
1 25886U 99043D   25198.73464264 -.00000061  00000+0  20991-3 0  9996
2 25886  51.9986 101.5071 0003158 121.3616 267.2670 11.27665875122891
GLOBALSTAR M058         
1 25907U 99049A   25198.88513454 -.00000058  00000+0  35798-3 0  9995
2 25907  51.9957  27.2032 0001942 349.8873  10.1922 11.93200679545204
GLOBALSTAR M050         
1 25908U 99049B   25198.77145032 -.00000001  00000+0  98976-3 0  9992
2 25908  52.0005  32.8976 0009991  91.6168  16.7593 12.07454643151882
GLOBALSTAR M033         
1 25909U 99049C   25198.57460857 -.00000101  00000+0 -87908-4 0  9992
2 25909  51.9906 263.1728 0013276 325.0148  34.9826 12.20295114172175
GLOBALSTAR M055         
1 25910U 99049D   25198.50062369 -.00000079  00000+0  12952-3 0  9992
2 25910  52.0018 272.6537 0007357 192.3742 167.6930 12.29429958172235
